{
  "type": "FeatureCollection",
  "features": [
    {
      "type": "Feature",
      "properties": {
        "norad_id": 63772,
        "name": "BIOMASS",
        "group": "resource",
        "lat": -80.95088091046618,
        "lon": -123.79187690485462,
        "alt_km": 677.0355079532665,
        "timestamp": "2025-12-14T05:42:18.115532+00:00",
        "meta_object_name": "BIOMASS",
        "meta_object_id": "2025-090A",
        "meta_epoch": "2025-12-13T12:05:45.708864",
        "meta_mean_motion": 14.67543484,
        "meta_eccentricity": 0.00011494,
        "meta_inclination": 98.0701,
        "meta_ra_of_asc_node": 172.5025,
        "meta_arg_of_pericenter": 79.7434,
        "meta_mean_anomaly": 280.39,
        "meta_ephemeris_type": 0,
        "meta_classification_type": "U",
        "meta_norad_cat_id": 63772,
        "meta_element_set_no": 999,
        "meta_rev_at_epoch": 3345,
        "meta_bstar": 0.00037658617,
        "meta_mean_motion_dot": 2.088e-05,
        "meta_mean_motion_ddot": 0,
        "tle_line1": "1 63772U 25090A   25347.50400126  .00002088  00000+0  37659-3 0  9990",
        "tle_line2": "2 63772  98.0701 172.5025 0001149  79.7434 280.3900 14.67543484 33456"
      },
      "geometry": {
        "type": "Point",
        "coordinates": [
          -123.79187690485462,
          -80.95088091046618
        ]
      }
    },
    {
      "type": "Feature",
      "properties": {
        "norad_id": 64694,
        "name": "GOSAT-GW (IBUKI GW)",
        "group": "resource",
        "lat": 55.37813213110062,
        "lon": 115.54026479223097,
        "alt_km": 662.794241808795,
        "timestamp": "2025-12-14T05:42:18.115541+00:00",
        "meta_object_name": "GOSAT-GW (IBUKI GW)",
        "meta_object_id": "2025-141A",
        "meta_epoch": "2025-12-13T16:03:09.154944",
        "meta_mean_motion": 14.67560935,
        "meta_eccentricity": 0.00014863,
        "meta_inclination": 98.0422,
        "meta_ra_of_asc_node": 283.165,
        "meta_arg_of_pericenter": 84.9741,
        "meta_mean_anomaly": 275.1633,
        "meta_ephemeris_type": 0,
        "meta_classification_type": "U",
        "meta_norad_cat_id": 64694,
        "meta_element_set_no": 999,
        "meta_rev_at_epoch": 2463,
        "meta_bstar": 0.0003010938,
        "meta_mean_motion_dot": 1.661e-05,
        "meta_mean_motion_ddot": 0,
        "tle_line1": "1 64694U 25141A   25347.66885596  .00001661  00000+0  30109-3 0  9995",
        "tle_line2": "2 64694  98.0422 283.1650 0001486  84.9741 275.1633 14.67560935 24631"
      },
      "geometry": {
        "type": "Point",
        "coordinates": [
          115.54026479223097,
          55.37813213110062
        ]
      }
    },
    {
      "type": "Feature",
      "properties": {
        "norad_id": 64876,
        "name": "IONOSFERA-M 3",
        "group": "resource",
        "lat": -56.93894534069486,
        "lon": 116.65275044585421,
        "alt_km": 829.1246061414786,
        "timestamp": "2025-12-14T05:42:18.115552+00:00",
        "meta_object_name": "IONOSFERA-M 3",
        "meta_object_id": "2025-155A",
        "meta_epoch": "2025-12-13T15:04:27.470208",
        "meta_mean_motion": 14.21441239,
        "meta_eccentricity": 0.00022158,
        "meta_inclination": 98.5783,
        "meta_ra_of_asc_node": 309.469,
        "meta_arg_of_pericenter": 58.7266,
        "meta_mean_anomaly": 301.4129,
        "meta_ephemeris_type": 0,
        "meta_classification_type": "U",
        "meta_norad_cat_id": 64876,
        "meta_element_set_no": 999,
        "meta_rev_at_epoch": 2004,
        "meta_bstar": 7.7519114e-05,
        "meta_mean_motion_dot": 1.27e-06,
        "meta_mean_motion_ddot": 0,
        "tle_line1": "1 64876U 25155A   25347.62809572  .00000127  00000+0  77519-4 0  9991",
        "tle_line2": "2 64876  98.5783 309.4690 0002215  58.7266 301.4129 14.21441239 20045"
      },
      "geometry": {
        "type": "Point",
        "coordinates": [
          116.65275044585421,
          -56.93894534069486
        ]
      }
    },
    {
      "type": "Feature",
      "properties": {
        "norad_id": 64877,
        "name": "IONOSFERA-M 4",
        "group": "resource",
        "lat": 57.45628463998058,
        "lon": -63.701163684171036,
        "alt_km": 813.785249256156,
        "timestamp": "2025-12-14T05:42:18.115562+00:00",
        "meta_object_name": "IONOSFERA-M 4",
        "meta_object_id": "2025-155B",
        "meta_epoch": "2025-12-13T15:54:57.114720",
        "meta_mean_motion": 14.21442448,
        "meta_eccentricity": 0.00015807,
        "meta_inclination": 98.5782,
        "meta_ra_of_asc_node": 309.4227,
        "meta_arg_of_pericenter": 62.6235,
        "meta_mean_anomaly": 297.5104,
        "meta_ephemeris_type": 0,
        "meta_classification_type": "U",
        "meta_norad_cat_id": 64877,
        "meta_element_set_no": 999,
        "meta_rev_at_epoch": 2004,
        "meta_bstar": 8.1870786e-05,
        "meta_mean_motion_dot": 1.36e-06,
        "meta_mean_motion_ddot": 0,
        "tle_line1": "1 64877U 25155B   25347.66316105  .00000136  00000+0  81871-4 0  9997",
        "tle_line2": "2 64877  98.5782 309.4227 0001580  62.6235 297.5104 14.21442448 20046"
      },
      "geometry": {
        "type": "Point",
        "coordinates": [
          -63.701163684171036,
          57.45628463998058
        ]
      }
    },
    {
      "type": "Feature",
      "properties": {
        "norad_id": 64899,
        "name": "MICROCARB",
        "group": "resource",
        "lat": 53.58500694194745,
        "lon": -105.44676971724746,
        "alt_km": 637.7484840555308,
        "timestamp": "2025-12-14T05:42:18.115572+00:00",
        "meta_object_name": "MICROCARB",
        "meta_object_id": "2025-156A",
        "meta_epoch": "2025-12-13T16:05:09.690720",
        "meta_mean_motion": 14.7205901,
        "meta_eccentricity": 0.00171983,
        "meta_inclination": 98.0025,
        "meta_ra_of_asc_node": 63.0008,
        "meta_arg_of_pericenter": 141.8981,
        "meta_mean_anomaly": 218.3446,
        "meta_ephemeris_type": 0,
        "meta_classification_type": "U",
        "meta_norad_cat_id": 64899,
        "meta_element_set_no": 999,
        "meta_rev_at_epoch": 2067,
        "meta_bstar": 0.00017554077,
        "meta_mean_motion_dot": 1.056e-05,
        "meta_mean_motion_ddot": 0,
        "tle_line1": "1 64899U 25156A   25347.67025105  .00001056  00000+0  17554-3 0  9998",
        "tle_line2": "2 64899  98.0025  63.0008 0017198 141.8981 218.3446 14.72059010 20679"
      },
      "geometry": {
        "type": "Point",
        "coordinates": [
          -105.44676971724746,
          53.58500694194745
        ]
      }
    },
    {
      "type": "Feature",
      "properties": {
        "norad_id": 64900,
        "name": "CO3D 3",
        "group": "resource",
        "lat": 65.19854263574784,
        "lon": 48.16902083642999,
        "alt_km": 498.03204477709005,
        "timestamp": "2025-12-14T05:42:18.115582+00:00",
        "meta_object_name": "CO3D 3",
        "meta_object_id": "2025-156B",
        "meta_epoch": "2025-12-13T16:46:35.865408",
        "meta_mean_motion": 15.2020033,
        "meta_eccentricity": 0.00013843,
        "meta_inclination": 97.4344,
        "meta_ra_of_asc_node": 64.0523,
        "meta_arg_of_pericenter": 93.9049,
        "meta_mean_anomaly": 266.2345,
        "meta_ephemeris_type": 0,
        "meta_classification_type": "U",
        "meta_norad_cat_id": 64900,
        "meta_element_set_no": 999,
        "meta_rev_at_epoch": 2135,
        "meta_bstar": 0.00015817929,
        "meta_mean_motion_dot": 3.358e-05,
        "meta_mean_motion_ddot": 0,
        "tle_line1": "1 64900U 25156B   25347.69902622  .00003358  00000+0  15818-3 0  9999",
        "tle_line2": "2 64900  97.4344  64.0523 0001384  93.9049 266.2345 15.20200330 21357"
      },
      "geometry": {
        "type": "Point",
        "coordinates": [
          48.16902083642999,
          65.19854263574784
        ]
      }
    },
    {
      "type": "Feature",
      "properties": {
        "norad_id": 64901,
        "name": "CO3D 4",
        "group": "resource",
        "lat": 64.5852978607126,
        "lon": 48.63529157727242,
        "alt_km": 499.60056126936706,
        "timestamp": "2025-12-14T05:42:18.115592+00:00",
        "meta_object_name": "CO3D 4",
        "meta_object_id": "2025-156C",
        "meta_epoch": "2025-12-12T15:30:13.261248",
        "meta_mean_motion": 15.20210943,
        "meta_eccentricity": 0.00010187,
        "meta_inclination": 97.4314,
        "meta_ra_of_asc_node": 63.0114,
        "meta_arg_of_pericenter": 237.4062,
        "meta_mean_anomaly": 122.7075,
        "meta_ephemeris_type": 0,
        "meta_classification_type": "U",
        "meta_norad_cat_id": 64901,
        "meta_element_set_no": 999,
        "meta_rev_at_epoch": 2119,
        "meta_bstar": 5.204221e-05,
        "meta_mean_motion_dot": 1.059e-05,
        "meta_mean_motion_ddot": 0,
        "tle_line1": "1 64901U 25156C   25346.64598682  .00001059  00000+0  52042-4 0  9998",
        "tle_line2": "2 64901  97.4314  63.0114 0001018 237.4062 122.7075 15.20210943 21193"
      },
      "geometry": {
        "type": "Point",
        "coordinates": [
          48.63529157727242,
          64.5852978607126
        ]
      }
    }
  ]
}